{
  "norad_id": 63086,
  "name": "STARLINK-32914",
  "history": [
    {
      "epoch": "2026-04-11T17:57:33.964992Z",
      "apogee_km": 573.632802496968,
      "perigee_km": 570.3162092863558,
      "latitude_deg": -1.2158874456775795e-06,
      "longitude_deg": 161.75223256818532,
      "height_km": 574.488501444522,
      "semi_major_axis_km": 6950.111505891661,
      "eccentricity": 0.0002386,
      "inclination_deg": 70.0,
      "raan_deg": 271.1071,
      "arg_perigee_deg": 266.988,
      "mean_anomaly_deg": 93.1006,
      "mean_motion_rev_day": 14.98356318
    },
    {
      "epoch": "2026-04-13T03:36:23.563008Z",
      "apogee_km": 573.9084678258005,
      "perigee_km": 570.2098514374911,
      "latitude_deg": 7.124212699943212e-07,
      "longitude_deg": 12.125336323784477,
      "height_km": 574.0163278791235,
      "semi_major_axis_km": 6950.196159631645,
      "eccentricity": 0.00026608,
      "inclination_deg": 69.9993,
      "raan_deg": 267.5687,
      "arg_perigee_deg": 284.7146,
      "mean_anomaly_deg": 75.3718,
      "mean_motion_rev_day": 14.98328943
    },
    {
      "epoch": "2026-04-14T19:39:46.670688Z",
      "apogee_km": 573.6399604206508,
      "perigee_km": 570.5179234195411,
      "latitude_deg": 1.3088183801119307e-05,
      "longitude_deg": 125.42830187485474,
      "height_km": 574.3512560433268,
      "semi_major_axis_km": 6950.215941920096,
      "eccentricity": 0.0002246,
      "inclination_deg": 69.9999,
      "raan_deg": 263.363,
      "arg_perigee_deg": 275.6729,
      "mean_anomaly_deg": 84.4174,
      "mean_motion_rev_day": 14.98322546
    },
    {
      "epoch": "2026-04-15T19:41:48.048864Z",
      "apogee_km": 573.6936207419976,
      "perigee_km": 570.4437045741388,
      "latitude_deg": 4.442218103663591e-05,
      "longitude_deg": 121.4104430829035,
      "height_km": 574.3251854076321,
      "semi_major_axis_km": 6950.205662658068,
      "eccentricity": 0.0002338,
      "inclination_deg": 69.9999,
      "raan_deg": 260.8379,
      "arg_perigee_deg": 276.012,
      "mean_anomaly_deg": 84.0773,
      "mean_motion_rev_day": 14.9832587
    },
    {
      "epoch": "2026-04-16T16:31:33.091680Z",
      "apogee_km": 573.6959675591334,
      "perigee_km": 570.4126971737223,
      "latitude_deg": 4.045511676111175e-05,
      "longitude_deg": 165.92844094012602,
      "height_km": 574.3230605411698,
      "semi_major_axis_km": 6950.191332366428,
      "eccentricity": 0.0002362,
      "inclination_deg": 70.0003,
      "raan_deg": 258.649,
      "arg_perigee_deg": 275.5248,
      "mean_anomaly_deg": 84.5642,
      "mean_motion_rev_day": 14.98330504
    },
    {
      "epoch": "2026-04-17T18:09:42.180480Z",
      "apogee_km": 573.6815743014522,
      "perigee_km": 570.3901114465243,
      "latitude_deg": 5.231603351658585e-05,
      "longitude_deg": 137.64444942002604,
      "height_km": 574.2729916007734,
      "semi_major_axis_km": 6950.172842873988,
      "eccentricity": 0.00023679,
      "inclination_deg": 70.0009,
      "raan_deg": 255.9557,
      "arg_perigee_deg": 276.6182,
      "mean_anomaly_deg": 83.4708,
      "mean_motion_rev_day": 14.98336483
    },
    {
      "epoch": "2026-04-18T16:35:34.704096Z",
      "apogee_km": 573.7113995855098,
      "perigee_km": 570.3141663715905,
      "latitude_deg": -1.3782710722158527e-05,
      "longitude_deg": 157.89765839755276,
      "height_km": 574.2257451828057,
      "semi_major_axis_km": 6950.14978297855,
      "eccentricity": 0.0002444,
      "inclination_deg": 70.0008,
      "raan_deg": 253.599,
      "arg_perigee_deg": 277.2357,
      "mean_anomaly_deg": 82.8524,
      "mean_motion_rev_day": 14.9834394
    },
    {
      "epoch": "2026-04-19T13:25:21.639936Z",
      "apogee_km": 573.9899927942197,
      "perigee_km": 569.9603177665886,
      "latitude_deg": -5.671069808023705e-07,
      "longitude_deg": -157.59214908748754,
      "height_km": 573.5345928513697,
      "semi_major_axis_km": 6950.112155280403,
      "eccentricity": 0.0002899,
      "inclination_deg": 70.0011,
      "raan_deg": 251.4102,
      "arg_perigee_deg": 295.5062,
      "mean_anomaly_deg": 64.5797,
      "mean_motion_rev_day": 14.98356108
    },
    {
      "epoch": "2026-04-20T14:00:03.000384Z",
      "apogee_km": 573.8117310706839,
      "perigee_km": 570.1898752586985,
      "latitude_deg": 52.44578170157157,
      "longitude_deg": -17.942017452079476,
      "height_km": 581.5416650734421,
      "semi_major_axis_km": 6950.137803164691,
      "eccentricity": 0.00026056,
      "inclination_deg": 70.0013,
      "raan_deg": 248.8277,
      "arg_perigee_deg": 275.4763,
      "mean_anomaly_deg": 207.1513,
      "mean_motion_rev_day": 14.98347814
    },
    {
      "epoch": "2026-04-20T15:03:55.570464Z",
      "apogee_km": 575.2292656360287,
      "perigee_km": 573.1767958121591,
      "latitude_deg": -5.1914506394601725e-05,
      "longitude_deg": 174.0219425132286,
      "height_km": 575.6091630344803,
      "semi_major_axis_km": 6952.340030724094,
      "eccentricity": 0.00014761,
      "inclination_deg": 70.0001,
      "raan_deg": 248.7188,
      "arg_perigee_deg": 7.8727,
      "mean_anomaly_deg": 352.2454,
      "mean_motion_rev_day": 14.97635944
    },
    {
      "epoch": "2026-04-22T15:07:29.145216Z",
      "apogee_km": 573.9123081578091,
      "perigee_km": 570.1981254371531,
      "latitude_deg": -1.1631712317899058e-05,
      "longitude_deg": 166.10763092349706,
      "height_km": 574.3993378333852,
      "semi_major_axis_km": 6950.192216797481,
      "eccentricity": 0.0002672,
      "inclination_deg": 70.0012,
      "raan_deg": 243.6681,
      "arg_perigee_deg": 272.5639,
      "mean_anomaly_deg": 87.5214,
      "mean_motion_rev_day": 14.98330218
    },
    {
      "epoch": "2026-04-23T13:33:22.498272Z",
      "apogee_km": 573.1850787493604,
      "perigee_km": 570.9400252900659,
      "latitude_deg": -1.0945640475886932e-05,
      "longitude_deg": -173.64450356458468,
      "height_km": 574.5319376479462,
      "semi_major_axis_km": 6950.199552019712,
      "eccentricity": 0.00016151,
      "inclination_deg": 70.0041,
      "raan_deg": 241.3095,
      "arg_perigee_deg": 267.7977,
      "mean_anomaly_deg": 92.2997,
      "mean_motion_rev_day": 14.98327846
    },
    {
      "epoch": "2026-04-24T20:00:01.999008Z",
      "apogee_km": 574.0442602492512,
      "perigee_km": 570.0534635273543,
      "latitude_deg": 0.40480360477437394,
      "longitude_deg": 85.39074363859696,
      "height_km": 574.2546360372057,
      "semi_major_axis_km": 6950.1858618883025,
      "eccentricity": 0.0002871,
      "inclination_deg": 70.0,
      "raan_deg": 238.1131,
      "arg_perigee_deg": 275.3123,
      "mean_anomaly_deg": 85.1989,
      "mean_motion_rev_day": 14.98332273
    },
    {
      "epoch": "2026-04-25T16:49:39.766080Z",
      "apogee_km": 573.912486391233,
      "perigee_km": 570.1607826633153,
      "latitude_deg": 4.703251630157499e-06,
      "longitude_deg": 129.7940070074477,
      "height_km": 574.3936289207024,
      "semi_major_axis_km": 6950.173634527274,
      "eccentricity": 0.0002699,
      "inclination_deg": 70.0018,
      "raan_deg": 235.9256,
      "arg_perigee_deg": 272.1471,
      "mean_anomaly_deg": 87.9379,
      "mean_motion_rev_day": 14.98336227
    },
    {
      "epoch": "2026-04-26T16:51:40.706208Z",
      "apogee_km": 573.9331480006676,
      "perigee_km": 570.1483592031664,
      "latitude_deg": -8.504488754031337e-06,
      "longitude_deg": 125.77886074687987,
      "height_km": 574.5059738540847,
      "semi_major_axis_km": 6950.177753601917,
      "eccentricity": 0.00027228,
      "inclination_deg": 70.0013,
      "raan_deg": 233.4014,
      "arg_perigee_deg": 268.8512,
      "mean_anomaly_deg": 91.2335,
      "mean_motion_rev_day": 14.98334895
    },
    {
      "epoch": "2026-04-27T15:17:33.659232Z",
      "apogee_km": 574.0363625429536,
      "perigee_km": 570.0580770955294,
      "latitude_deg": 2.1499326141904796e-05,
      "longitude_deg": 146.02961082444716,
      "height_km": 574.6024496490903,
      "semi_major_axis_km": 6950.184219819242,
      "eccentricity": 0.0002862,
      "inclination_deg": 70.0011,
      "raan_deg": 231.044,
      "arg_perigee_deg": 266.3157,
      "mean_anomaly_deg": 93.7675,
      "mean_motion_rev_day": 14.98332804
    },
    {
      "epoch": "2026-04-28T16:55:43.143744Z",
      "apogee_km": 574.2942667111247,
      "perigee_km": 569.8558612870547,
      "latitude_deg": 1.735333241116473e-05,
      "longitude_deg": 117.74315953018991,
      "height_km": 574.6358412573304,
      "semi_major_axis_km": 6950.21206399909,
      "eccentricity": 0.0003193,
      "inclination_deg": 70.0007,
      "raan_deg": 228.3499,
      "arg_perigee_deg": 266.5621,
      "mean_anomaly_deg": 93.5173,
      "mean_motion_rev_day": 14.983238
    },
    {
      "epoch": "2026-04-29T15:21:37.455840Z",
      "apogee_km": 574.2024394726732,
      "perigee_km": 570.0156112669911,
      "latitude_deg": -1.6347734409989346e-05,
      "longitude_deg": 137.98970792810383,
      "height_km": 574.6211807706281,
      "semi_major_axis_km": 6950.246025369832,
      "eccentricity": 0.0003012,
      "inclination_deg": 70.0019,
      "raan_deg": 225.994,
      "arg_perigee_deg": 267.685,
      "mean_anomaly_deg": 92.3964,
      "mean_motion_rev_day": 14.98312818
    },
    {
      "epoch": "2026-04-30T13:47:30.380352Z",
      "apogee_km": 574.1560682309046,
      "perigee_km": 569.9017326799185,
      "latitude_deg": 9.843801117470834e-06,
      "longitude_deg": 158.24157488445817,
      "height_km": 574.5760556340014,
      "semi_major_axis_km": 6950.165900455411,
      "eccentricity": 0.00030606,
      "inclination_deg": 70.0017,
      "raan_deg": 223.6376,
      "arg_perigee_deg": 266.7796,
      "mean_anomaly_deg": 93.3013,
      "mean_motion_rev_day": 14.98338728
    }
  ]
}